QIANFAN-57              
1 62787U 25016C   25273.57537323  .00000079  00000+0  10323-3 0  9995
2 62787  88.9756 110.7553 0002051  62.0639 298.0719 13.50973410 37325
QIANFAN-58              
1 62788U 25016D   25273.54650094  .00000082  00000+0  10824-3 0  9994
2 62788  88.9726 110.6127 0013352 187.8277 172.2668 13.50972969 37367
QIANFAN-59              
1 62789U 25016E   25273.57116316  .00000071  00000+0  91219-4 0  9998
2 62789  88.9749 110.6664 0013618 191.8499 168.2334 13.50972146 37367
QIANFAN-60              
1 62790U 25016F   25273.45632892  .00000063  00000+0  77135-4 0  9991
2 62790  88.9732 110.6637 0014892 189.3455 170.7422 13.52524324 37336
QIANFAN-61              
1 62791U 25016G   25273.56291434  .00000092  00000+0  12314-3 0  9996
2 62791  88.9798 110.7658 0014207 187.7988 172.2944 13.50972714 37363
QIANFAN-62              
1 62792U 25016H   25273.56708905  .00000070  00000+0  89662-4 0  9990
2 62792  88.9744 110.6733 0015583 188.7624 171.3257 13.50966513 37350
QIANFAN-63              
1 62793U 25016J   25273.51764391  .00000079  00000+0  10424-3 0  9995
2 62793  88.9751 110.6250 0015480 194.4494 165.6217 13.50969346 37380
QIANFAN-64              
1 62794U 25016K   25273.55880551  .00000066  00000+0  84253-4 0  9995
2 62794  88.9737 110.6047 0013625 186.1200 173.9786 13.50971108 37383
